start=new Date('2022-06-26T00:00:00.000Z').valueOf();
sats=[{"CLASSIFICATION_TYPE":"U","OBJECT_NAME":"STARLINK-4261","MEAN_MOTION_DDOT":"0.0000000000000","GP_ID":"206858650","ECCENTRICITY":"0.00154050","MEAN_ANOMALY":"69.8019","APOAPSIS":"325.151","SITE":"AFETR","INCLINATION":"53.2175","MEAN_MOTION_DOT":"-0.00748277","MEAN_ELEMENT_THEORY":"SGP4","TLE_LINE1":"1 52868U 22062AQ  22176.91667824 -.00748277  00000-0 -32613-2 0  9996","SEMIMAJOR_AXIS":"6692.975","COUNTRY_CODE":"US","OBJECT_ID":"2022-062AQ","REF_FRAME":"TEME","CENTER_NAME":"EARTH","MEAN_MOTION":"15.85528074","ELEMENT_SET_NO":"999","TLE_LINE2":"2 52868  53.2175   3.6601 0015405  58.9640  69.8019 15.85528074  1309","OBJECT_TYPE":"PAYLOAD","FILE":"3502557","DECAY_DATE":null,"RCS_SIZE":null,"PERIOD":"90.821","LAUNCH_DATE":"2022-06-17","TIME_SYSTEM":"UTC","PERIAPSIS":"304.530","ARG_OF_PERICENTER":"58.9640","REV_AT_EPOCH":"130","EPHEMERIS_TYPE":"0","RA_OF_ASC_NODE":"3.6601","BSTAR":"-0.00326130000000","NORAD_CAT_ID":"52868","EPOCH":"2022-06-25T22:00:00.999936"},{"ARG_OF_PERICENTER":"58.5917","PERIAPSIS":"304.628","REV_AT_EPOCH":"130","EPOCH":"2022-06-25T22:00:00.999936","NORAD_CAT_ID":"52869","BSTAR":"-0.00325720000000","EPHEMERIS_TYPE":"0","RA_OF_ASC_NODE":"3.6582","LAUNCH_DATE":"2022-06-17","PERIOD":"90.819","TIME_SYSTEM":"UTC","RCS_SIZE":null,"FILE":"3502557","DECAY_DATE":null,"ELEMENT_SET_NO":"999","MEAN_MOTION":"15.85571855","CENTER_NAME":"EARTH","OBJECT_TYPE":"PAYLOAD","TLE_LINE2":"2 52869  53.2175   3.6582 0015074  58.5917  71.3662 15.85571855  1300","OBJECT_ID":"2022-062AR","SEMIMAJOR_AXIS":"6692.852","COUNTRY_CODE":"US","TLE_LINE1":"1 52869U 22062AR  22176.91667824 -.00748537  00000-0 -32572-2 0  9990","MEAN_ELEMENT_THEORY":"SGP4","REF_FRAME":"TEME","INCLINATION":"53.2175","SITE":"AFETR","MEAN_MOTION_DOT":"-0.00748537","ECCENTRICITY":"0.00150740","GP_ID":"206858377","MEAN_MOTION_DDOT":"0.0000000000000","APOAPSIS":"324.806","MEAN_ANOMALY":"71.3662","CLASSIFICATION_TYPE":"U","OBJECT_NAME":"STARLINK-4266"},{"OBJECT_TYPE":"PAYLOAD","TLE_LINE2":"2 52870  53.2175   3.6590 0015312  58.5998  70.7686 15.85549773  1308","ELEMENT_SET_NO":"999","MEAN_MOTION":"15.85549773","CENTER_NAME":"EARTH","DECAY_DATE":null,"FILE":"3502557","LAUNCH_DATE":"2022-06-17","PERIOD":"90.820","TIME_SYSTEM":"UTC","RCS_SIZE":null,"EPOCH":"2022-06-25T22:00:00.999936","NORAD_CAT_ID":"52870","BSTAR":"-0.00325920000000","EPHEMERIS_TYPE":"0","RA_OF_ASC_NODE":"3.6590","PERIAPSIS":"304.531","REV_AT_EPOCH":"130","ARG_OF_PERICENTER":"58.5998","OBJECT_NAME":"STARLINK-4195","CLASSIFICATION_TYPE":"U","APOAPSIS":"325.027","MEAN_ANOMALY":"70.7686","ECCENTRICITY":"0.00153120","GP_ID":"206858480","MEAN_MOTION_DDOT":"0.0000000000000","MEAN_MOTION_DOT":"-0.00748467","INCLINATION":"53.2175","SITE":"AFETR","REF_FRAME":"TEME","OBJECT_ID":"2022-062AS","COUNTRY_CODE":"US","SEMIMAJOR_AXIS":"6692.914","MEAN_ELEMENT_THEORY":"SGP4","TLE_LINE1":"1 52870U 22062AS  22176.91667824 -.00748467  00000-0 -32592-2 0  9996"},{"OBJECT_TYPE":"PAYLOAD","TLE_LINE2":"2 52871  53.2175   3.6566 0015010  58.4395  72.3900 15.85605420  1306","ELEMENT_SET_NO":"999","MEAN_MOTION":"15.85605420","CENTER_NAME":"EARTH","DECAY_DATE":null,"FILE":"3502557","LAUNCH_DATE":"2022-06-17","TIME_SYSTEM":"UTC","PERIOD":"90.817","RCS_SIZE":null,"EPOCH":"2022-06-25T22:00:00.999936","NORAD_CAT_ID":"52871","BSTAR":"-0.00325340000000","RA_OF_ASC_NODE":"3.6566","EPHEMERIS_TYPE":"0","ARG_OF_PERICENTER":"58.4395","PERIAPSIS":"304.577","REV_AT_EPOCH":"130","OBJECT_NAME":"STARLINK-4207","CLASSIFICATION_TYPE":"U","APOAPSIS":"324.668","MEAN_ANOMALY":"72.3900","ECCENTRICITY":"0.00150100","GP_ID":"206858274","MEAN_MOTION_DDOT":"0.0000000000000","MEAN_MOTION_DOT":"-0.00748801","INCLINATION":"53.2175","SITE":"AFETR","REF_FRAME":"TEME","OBJECT_ID":"2022-062AT","SEMIMAJOR_AXIS":"6692.758","COUNTRY_CODE":"US","MEAN_ELEMENT_THEORY":"SGP4","TLE_LINE1":"1 52871U 22062AT  22176.91667824 -.00748801  00000-0 -32534-2 0  9995"},{"REV_AT_EPOCH":"130","PERIAPSIS":"304.653","ARG_OF_PERICENTER":"58.3782","EPHEMERIS_TYPE":"0","RA_OF_ASC_NODE":"3.6572","BSTAR":"-0.00325650000000","NORAD_CAT_ID":"52872","EPOCH":"2022-06-25T22:00:00.999936","RCS_SIZE":null,"LAUNCH_DATE":"2022-06-17","TIME_SYSTEM":"UTC","PERIOD":"90.818","FILE":"3502557","DECAY_DATE":null,"CENTER_NAME":"EARTH","MEAN_MOTION":"15.85582773","ELEMENT_SET_NO":"999","TLE_LINE2":"2 52872  53.2175   3.6572 0014991  58.3782  71.8791 15.85582773  1307","OBJECT_TYPE":"PAYLOAD","TLE_LINE1":"1 52872U 22062AU  22176.91667824 -.00748671  00000-0 -32565-2 0  9995","MEAN_ELEMENT_THEORY":"SGP4","COUNTRY_CODE":"US","SEMIMAJOR_AXIS":"6692.821","OBJECT_ID":"2022-062AU","REF_FRAME":"TEME","SITE":"AFETR","INCLINATION":"53.2175","MEAN_MOTION_DOT":"-0.00748671","MEAN_MOTION_DDOT":"0.0000000000000","GP_ID":"206858585","ECCENTRICITY":"0.00149910","MEAN_ANOMALY":"71.8791","APOAPSIS":"324.720","CLASSIFICATION_TYPE":"U","OBJECT_NAME":"STARLINK-4213"},{"MEAN_MOTION_DOT":"-0.00748937","INCLINATION":"53.2175","SITE":"AFETR","REF_FRAME":"TEME","OBJECT_ID":"2022-062AV","MEAN_ELEMENT_THEORY":"SGP4","TLE_LINE1":"1 52873U 22062AV  22176.91667824 -.00748937  00000-0 -32494-2 0  9992","COUNTRY_CODE":"US","SEMIMAJOR_AXIS":"6692.699","OBJECT_NAME":"STARLINK-4211","CLASSIFICATION_TYPE":"U","APOAPSIS":"324.787","MEAN_ANOMALY":"72.7839","GP_ID":"206858031","ECCENTRICITY":"0.00152740","MEAN_MOTION_DDOT":"0.0000000000000","TIME_SYSTEM":"UTC","LAUNCH_DATE":"2022-06-17","PERIOD":"90.816","RCS_SIZE":null,"BSTAR":"-0.00324940000000","EPOCH":"2022-06-25T22:00:00.999936","NORAD_CAT_ID":"52873","EPHEMERIS_TYPE":"0","RA_OF_ASC_NODE":"3.6554","PERIAPSIS":"304.342","ARG_OF_PERICENTER":"58.6671","REV_AT_EPOCH":"130","OBJECT_TYPE":"PAYLOAD","TLE_LINE2":"2 52873  53.2175   3.6554 0015274  58.6671  72.7839 15.85626191  1309","ELEMENT_SET_NO":"999","CENTER_NAME":"EARTH","MEAN_MOTION":"15.85626191","DECAY_DATE":null,"FILE":"3502557"},{"OBJECT_NAME":"STARLINK-4210","CLASSIFICATION_TYPE":"U","MEAN_ANOMALY":"71.7308","APOAPSIS":"324.779","MEAN_MOTION_DDOT":"0.0000000000000","GP_ID":"206858134","ECCENTRICITY":"0.00151270","MEAN_MOTION_DOT":"-0.00748709","SITE":"AFETR","INCLINATION":"53.2175","REF_FRAME":"TEME","MEAN_ELEMENT_THEORY":"SGP4","TLE_LINE1":"1 52874U 22062AW  22176.91667824 -.00748709  00000-0 -32542-2 0  9994","COUNTRY_CODE":"US","SEMIMAJOR_AXIS":"6692.790","OBJECT_ID":"2022-062AW","TLE_LINE2":"2 52874  53.2175   3.6567 0015127  58.8134  71.7308 15.85594020  1302","OBJECT_TYPE":"PAYLOAD","CENTER_NAME":"EARTH","MEAN_MOTION":"15.85594020","ELEMENT_SET_NO":"999","DECAY_DATE":null,"FILE":"3502557","RCS_SIZE":null,"TIME_SYSTEM":"UTC","LAUNCH_DATE":"2022-06-17","PERIOD":"90.818","RA_OF_ASC_NODE":"3.6567","EPHEMERIS_TYPE":"0","BSTAR":"-0.00325420000000","EPOCH":"2022-06-25T22:00:00.999936","NORAD_CAT_ID":"52874","PERIAPSIS":"304.530","ARG_OF_PERICENTER":"58.8134","REV_AT_EPOCH":"130"},{"MEAN_MOTION_DOT":"-0.00749014","SITE":"AFETR","INCLINATION":"53.2175","REF_FRAME":"TEME","COUNTRY_CODE":"US","SEMIMAJOR_AXIS":"6692.666","TLE_LINE1":"1 52875U 22062AX  22176.91667824 -.00749014  00000-0 -32481-2 0  9997","MEAN_ELEMENT_THEORY":"SGP4","OBJECT_ID":"2022-062AX","OBJECT_NAME":"STARLINK-4193","CLASSIFICATION_TYPE":"U","MEAN_ANOMALY":"73.2284","APOAPSIS":"324.723","MEAN_MOTION_DDOT":"0.0000000000000","ECCENTRICITY":"0.00152290","GP_ID":"206857928","RCS_SIZE":null,"LAUNCH_DATE":"2022-06-17","PERIOD":"90.815","TIME_SYSTEM":"UTC","RA_OF_ASC_NODE":"3.6549","EPHEMERIS_TYPE":"0","NORAD_CAT_ID":"52875","EPOCH":"2022-06-25T22:00:00.999936","BSTAR":"-0.00324810000000","ARG_OF_PERICENTER":"58.4946","PERIAPSIS":"304.339","REV_AT_EPOCH":"130","TLE_LINE2":"2 52875  53.2175   3.6549 0015229  58.4946  73.2284 15.85638015  1306","OBJECT_TYPE":"PAYLOAD","MEAN_MOTION":"15.85638015","CENTER_NAME":"EARTH","ELEMENT_SET_NO":"999","DECAY_DATE":null,"FILE":"3502557"},{"MEAN_ANOMALY":"72.4203","APOAPSIS":"324.765","MEAN_MOTION_DDOT":"0.0000000000000","ECCENTRICITY":"0.00151970","GP_ID":"206858651","OBJECT_NAME":"STARLINK-4200","CLASSIFICATION_TYPE":"U","REF_FRAME":"TEME","COUNTRY_CODE":"US","SEMIMAJOR_AXIS":"6692.729","MEAN_ELEMENT_THEORY":"SGP4","TLE_LINE1":"1 52876U 22062AY  22176.91667824 -.00748855  00000-0 -32511-2 0  9994","OBJECT_ID":"2022-062AY","MEAN_MOTION_DOT":"-0.00748855","SITE":"AFETR","INCLINATION":"53.2175","DECAY_DATE":null,"FILE":"3502557","TLE_LINE2":"2 52876  53.2175   3.6555 0015197  58.7267  72.4203 15.85615545  1302","OBJECT_TYPE":"PAYLOAD","MEAN_MOTION":"15.85615545","CENTER_NAME":"EARTH","ELEMENT_SET_NO":"999","RA_OF_ASC_NODE":"3.6555","EPHEMERIS_TYPE":"0","EPOCH":"2022-06-25T22:00:00.999936","NORAD_CAT_ID":"52876","BSTAR":"-0.00325110000000","ARG_OF_PERICENTER":"58.7267","PERIAPSIS":"304.423","REV_AT_EPOCH":"130","RCS_SIZE":null,"LAUNCH_DATE":"2022-06-17","PERIOD":"90.816","TIME_SYSTEM":"UTC"},{"OBJECT_ID":"2022-062AZ","MEAN_ELEMENT_THEORY":"SGP4","TLE_LINE1":"1 52877U 22062AZ  22176.91667824 -.00749215  00000-0 -32463-2 0  9992","COUNTRY_CODE":"US","SEMIMAJOR_AXIS":"6692.604","REF_FRAME":"TEME","INCLINATION":"53.2175","SITE":"AFETR","MEAN_MOTION_DOT":"-0.00749215","GP_ID":"206858378","ECCENTRICITY":"0.00150830","MEAN_MOTION_DDOT":"0.0000000000000","APOAPSIS":"324.564","MEAN_ANOMALY":"73.9086","CLASSIFICATION_TYPE":"U","OBJECT_NAME":"STARLINK-4214","ARG_OF_PERICENTER":"58.4088","PERIAPSIS":"304.375","REV_AT_EPOCH":"130","BSTAR":"-0.00324630000000","EPOCH":"2022-06-25T22:00:00.999936","NORAD_CAT_ID":"52877","EPHEMERIS_TYPE":"0","RA_OF_ASC_NODE":"3.6538","PERIOD":"90.814","LAUNCH_DATE":"2022-06-17","TIME_SYSTEM":"UTC","RCS_SIZE":null,"FILE":"3502557","DECAY_DATE":null,"ELEMENT_SET_NO":"999","CENTER_NAME":"EARTH","MEAN_MOTION":"15.85659820","OBJECT_TYPE":"PAYLOAD","TLE_LINE2":"2 52877  53.2175   3.6538 0015083  58.4088  73.9086 15.85659820  1305"}];
